{
    "links": {
        "self": "http://www.neowsapp.com/rest/v1/neo/3764801?api_key=iIulBulltgU6a56xZRHN4H3l9WmuAYTsLGpBGhQ2"
    },
    "id": "3764801",
    "neo_reference_id": "3764801",
    "name": "(2016 WO7)",
    "designation": "2016 WO7",
    "nasa_jpl_url": "http://ssd.jpl.nasa.gov/sbdb.cgi?sstr=3764801",
    "absolute_magnitude_h": 23.6,
    "estimated_diameter": {
        "kilometers": {
            "estimated_diameter_min": 0.0506471459,
            "estimated_diameter_max": 0.1132504611
        },
        "meters": {
            "estimated_diameter_min": 50.6471458835,
            "estimated_diameter_max": 113.2504610618
        },
        "miles": {
            "estimated_diameter_min": 0.0314706677,
            "estimated_diameter_max": 0.0703705522
        },
        "feet": {
            "estimated_diameter_min": 166.1651821003,
            "estimated_diameter_max": 371.5566426699
        }
    },
    "is_potentially_hazardous_asteroid": false,
    "close_approach_data": [
        {
            "close_approach_date": "2016-11-15",
            "close_approach_date_full": "2016-Nov-15 03:23",
            "epoch_date_close_approach": 1479180180000,
            "relative_velocity": {
                "kilometers_per_second": "11.6809763062",
                "kilometers_per_hour": "42051.514702352",
                "miles_per_hour": "26129.1758993587"
            },
            "miss_distance": {
                "astronomical": "0.0699774989",
                "lunar": "27.2212470721",
                "kilometers": "10468484.783367343",
                "miles": "6504814.8121136134"
            },
            "orbiting_body": "Earth"
        }
    ],
    "orbital_data": {
        "orbit_id": "6",
        "orbit_determination_date": "2017-04-06 08:21:56",
        "first_observation_date": "2016-11-14",
        "last_observation_date": "2016-12-05",
        "data_arc_in_days": 21,
        "observations_used": 46,
        "orbit_uncertainty": "8",
        "minimum_orbit_intersection": ".0678949",
        "jupiter_tisserand_invariant": "3.279",
        "epoch_osculation": "2457715.5",
        "eccentricity": ".5753903962027951",
        "semi_major_axis": "2.359237363376865",
        "inclination": "12.91035789214765",
        "ascending_node_longitude": "62.23044345697932",
        "orbital_period": "1323.597332346905",
        "perihelion_distance": "1.001754842127013",
        "perihelion_argument": "322.5078691561923",
        "aphelion_distance": "3.716719884626718",
        "perihelion_time": "2457685.081135881319",
        "mean_anomaly": "8.273506462352886",
        "mean_motion": ".2719860422819639",
        "equinox": "J2000",
        "orbit_class": {
            "orbit_class_type": "APO",
            "orbit_class_description": "Near-Earth asteroid orbits which cross the Earth’s orbit similar to that of 1862 Apollo",
            "orbit_class_range": "a (semi-major axis) > 1.0 AU; q (perihelion) < 1.017 AU"
        }
    },
    "is_sentry_object": false
}